[
  {
    "OBJECT_NAME": "ERMIS-1",
    "OBJECT_ID": "2026-067BE",
    "EPOCH": "2026-07-23T04:22:34.979520",
    "MEAN_MOTION": 15.1822327,
    "ECCENTRICITY": 0.00046697,
    "INCLINATION": 97.456,
    "RA_OF_ASC_NODE": 162.0159,
    "ARG_OF_PERICENTER": 304.6667,
    "MEAN_ANOMALY": 55.4127,
    "EPHEMERIS_TYPE": 0,
    "CLASSIFICATION_TYPE": "U",
    "NORAD_CAT_ID": 68468,
    "ELEMENT_SET_NO": 999,
    "REV_AT_EPOCH": 1739,
    "BSTAR": 0.00042061657,
    "MEAN_MOTION_DOT": 0.00008545,
    "MEAN_MOTION_DDOT": 0
  }
]
