ERMIS-1                 
1 68468U 26067BE  26204.18234930  .00008545  00000+0  42062-3 0  9995
2 68468  97.4560 162.0159 0004669 304.6667  55.4127 15.18223270 17391
